PANDORA
1 67395U 80229J   26066.81851852  .00000000  00000-0  37770-3 0    09
2 67395  97.8057  67.0725 0006994 100.7065 199.9067 14.87854584    07
